0 FENGYUN 1C DEB
1 29788U 99025CE  13284.03642139  .00001780  00000-0  10862-2 0   610
2 29788 099.0829 299.0941 0043802 170.9037 243.6831 14.06866900345583
0 FENGYUN 1C DEB
1 29788U 99025CE  13286.54708856  .00001751  00000-0  10687-2 0   621
2 29788 099.0827 301.6148 0043829 163.8942 359.5530 14.06874096345932
0 FENGYUN 1C DEB
1 29788U 99025CE  13288.59985617  .00002378  00000-0  14412-2 0   637
2 29788 099.0819 303.6765 0043953 158.3437 316.1616 14.06883522346227
0 FENGYUN 1C DEB
1 29788U 99025CE  13290.72153296  .00002663  00000-0  16104-2 0   643
2 29788 099.0816 305.8068 0044023 152.6461 261.8053 14.06891793346520
0 FENGYUN 1C DEB
1 29788U 99025CE  13292.99912365  .00002929  00000-0  17681-2 0   651
2 29788 099.0819 308.0935 0044089 146.4239 277.2887 14.06900776346840
0 FENGYUN 1C DEB
1 29788U 99025CE  13295.64298023  .00002889  00000-0  17439-2 0   661
2 29788 099.0828 310.7480 0044146 139.1046 348.0274 14.06915593347216
